[{"OBJECT_NAME":"CONNECTA IOT-2","OBJECT_ID":"2024-149BG","EPOCH":"2026-03-09T19:22:15.516192","MEAN_MOTION":15.23021673,"ECCENTRICITY":0.00053374,"INCLINATION":97.3884,"RA_OF_ASC_NODE":148.507,"ARG_OF_PERICENTER":325.6165,"MEAN_ANOMALY":34.4726,"EPHEMERIS_TYPE":0,"CLASSIFICATION_TYPE":"U","NORAD_CAT_ID":60522,"ELEMENT_SET_NO":999,"REV_AT_EPOCH":8676,"BSTAR":0.00026280259,"MEAN_MOTION_DOT":6.116e-5,"MEAN_MOTION_DDOT":0},{"OBJECT_NAME":"SL-3 R\/B","OBJECT_ID":"1988-032B","EPOCH":"2026-03-09T22:19:17.300640","MEAN_MOTION":15.19913684,"ECCENTRICITY":0.00244288,"INCLINATION":97.5196,"RA_OF_ASC_NODE":52.1801,"ARG_OF_PERICENTER":230.5802,"MEAN_ANOMALY":129.327,"EPHEMERIS_TYPE":0,"CLASSIFICATION_TYPE":"U","NORAD_CAT_ID":19046,"ELEMENT_SET_NO":999,"REV_AT_EPOCH":5214,"BSTAR":0.00028784627,"MEAN_MOTION_DOT":6.162e-5,"MEAN_MOTION_DDOT":0}]
